{
    "CCSDS_OMM_VERS": "3.0",
    "COMMENT": "GENERATED VIA SPACE-TRACK.ORG API",
    "CREATION_DATE": "2025-05-22T17:14:14",
    "ORIGINATOR": "18 SPCS",
    "OBJECT_NAME": "BEIDOU 3M14",
    "OBJECT_ID": "2018-072B",
    "CENTER_NAME": "EARTH",
    "REF_FRAME": "TEME",
    "TIME_SYSTEM": "UTC",
    "MEAN_ELEMENT_THEORY": "SGP4",
    "EPOCH": "2025-05-21T23:04:12.766368",
    "MEAN_MOTION": "1.86231286",
    "ECCENTRICITY": "0.00064230",
    "INCLINATION": "56.2814",
    "RA_OF_ASC_NODE": "75.5987",
    "ARG_OF_PERICENTER": "342.0228",
    "MEAN_ANOMALY": "17.9374",
    "EPHEMERIS_TYPE": "0",
    "CLASSIFICATION_TYPE": "U",
    "NORAD_CAT_ID": "43623",
    "ELEMENT_SET_NO": "999",
    "REV_AT_EPOCH": "4536",
    "BSTAR": "0.00000000000000",
    "MEAN_MOTION_DOT": "-0.00000016",
    "MEAN_MOTION_DDOT": "0.0000000000000",
    "SEMIMAJOR_AXIS": "27906.160",
    "PERIOD": "773.232",
    "APOAPSIS": "21545.949",
    "PERIAPSIS": "21510.101",
    "OBJECT_TYPE": "PAYLOAD",
    "RCS_SIZE": "LARGE",
    "COUNTRY_CODE": "PRC",
    "LAUNCH_DATE": "2018-09-19",
    "SITE": "XSC",
    "DECAY_DATE": null,
    "FILE": "4736220",
    "GP_ID": "288144564",
    "TLE_LINE0": "0 BEIDOU 3M14",
    "TLE_LINE1": "1 43623U 18072B   25141.96125887 -.00000016  00000-0  00000-0 0  9993",
    "TLE_LINE2": "2 43623  56.2814  75.5987 0006423 342.0228  17.9374  1.86231286 45369"
}